{"type": "FeatureCollection", "features": [ {"type": "Feature", "properties": {"norad_id": 42969, "name": "SENTINEL-5P", "group": "resource", "lat": -8.21942803453669, "lon": 104.66700485471483, "alt_km": 831.0338832408479, "timestamp": "2025-12-13T08:49:15.351067+00:00", "meta": {"OBJECT_NAME": "SENTINEL-5P", "OBJECT_ID": "2017-064A", "EPOCH": "2025-12-12T18:24:14.018688", "MEAN_MOTION": 14.19517585, "ECCENTRICITY": 9.504e-05, "INCLINATION": 98.7785, "RA_OF_ASC_NODE": 285.3507, "ARG_OF_PERICENTER": 88.8819, "MEAN_ANOMALY": 271.2466, "EPHEMERIS_TYPE": 0, "CLASSIFICATION_TYPE": "U", "NORAD_CAT_ID": 42969, "ELEMENT_SET_NO": 999, "REV_AT_EPOCH": 42311, "BSTAR": 9.3228453e-05, "MEAN_MOTION_DOT": 1.52e-06, "MEAN_MOTION_DDOT": 0}, "tle": {"line1": "1 42969U 17064A   25346.76682892  .00000152  00000+0  93228-4 0  9991", "line2": "2 42969  98.7785 285.3507 0000950  88.8819 271.2466 14.19517585423117"}}, "geometry": {"type": "Point", "coordinates": [104.66700485471483, -8.21942803453669]}}, {"type": "Feature", "properties": {"norad_id": 42987, "name": "SKYSAT-C11", "group": "resource", "lat": -49.994290508948254, "lon": -64.05189752602249, "alt_km": 431.4815403030816, "timestamp": "2025-12-13T08:49:15.351078+00:00", "meta": {"OBJECT_NAME": "SKYSAT-C11", "OBJECT_ID": "2017-068A", "EPOCH": "2025-12-12T22:30:58.781376", "MEAN_MOTION": 15.47456375, "ECCENTRICITY": 9.919e-05, "INCLINATION": 97.4139, "RA_OF_ASC_NODE": 124.434, "ARG_OF_PERICENTER": 103.3817, "MEAN_ANOMALY": 256.7543, "EPHEMERIS_TYPE": 0, "CLASSIFICATION_TYPE": "U", "NORAD_CAT_ID": 42987, "ELEMENT_SET_NO": 999, "REV_AT_EPOCH": 45434, "BSTAR": 0.00057650481, "MEAN_MOTION_DOT": 0.00029543, "MEAN_MOTION_DDOT": 0}, "tle": {"line1": "1 42987U 17068A   25346.93818034  .00029543  00000+0  57650-3 0  9996", "line2": "2 42987  97.4139 124.4340 0000991 103.3817 256.7543 15.47456375454344"}}, "geometry": {"type": "Point", "coordinates": [-64.05189752602249, -49.994290508948254]}}, {"type": "Feature", "properties": {"norad_id": 42988, "name": "SKYSAT-C10", "group": "resource", "lat": -80.30002112010618, "lon": 167.94819580606017, "alt_km": 480.61046536021786, "timestamp": "2025-12-13T08:49:15.351089+00:00", "meta": {"OBJECT_NAME": "SKYSAT-C10", "OBJECT_ID": "2017-068B", "EPOCH": "2025-12-12T22:12:49.471776", "MEAN_MOTION": 15.32068085, "ECCENTRICITY": 0.00053429, "INCLINATION": 97.4254, "RA_OF_ASC_NODE": 117.7766, "ARG_OF_PERICENTER": 102.9889, "MEAN_ANOMALY": 257.195, "EPHEMERIS_TYPE": 0, "CLASSIFICATION_TYPE": "U", "NORAD_CAT_ID": 42988, "ELEMENT_SET_NO": 999, "REV_AT_EPOCH": 45382, "BSTAR": 0.00051154393, "MEAN_MOTION_DOT": 0.00015781, "MEAN_MOTION_DDOT": 0}, "tle": {"line1": "1 42988U 17068B   25346.92557259  .00015781  00000+0  51154-3 0  9997", "line2": "2 42988  97.4254 117.7766 0005342 102.9889 257.1950 15.32068085453829"}}, "geometry": {"type": "Point", "coordinates": [167.94819580606017, -80.30002112010618]}}, {"type": "Feature", "properties": {"norad_id": 42989, "name": "SKYSAT-C9", "group": "resource", "lat": 46.514256859870656, "lon": -54.47823507633775, "alt_km": 448.8346052880388, "timestamp": "2025-12-13T08:49:15.351099+00:00", "meta": {"OBJECT_NAME": "SKYSAT-C9", "OBJECT_ID": "2017-068C", "EPOCH": "2025-12-12T21:18:03.960576", "MEAN_MOTION": 15.36054461, "ECCENTRICITY": 0.0010627, "INCLINATION": 97.4185, "RA_OF_ASC_NODE": 117.1422, "ARG_OF_PERICENTER": 86.9347, "MEAN_ANOMALY": 273.3113, "EPHEMERIS_TYPE": 0, "CLASSIFICATION_TYPE": "U", "NORAD_CAT_ID": 42989, "ELEMENT_SET_NO": 999, "REV_AT_EPOCH": 45410, "BSTAR": 0.00050474148, "MEAN_MOTION_DOT": 0.00017693, "MEAN_MOTION_DDOT": 0}, "tle": {"line1": "1 42989U 17068C   25346.88754584  .00017693  00000+0  50474-3 0  9991", "line2": "2 42989  97.4185 117.1422 0010627  86.9347 273.3113 15.36054461454108"}}, "geometry": {"type": "Point", "coordinates": [-54.47823507633775, 46.514256859870656]}}, {"type": "Feature", "properties": {"norad_id": 42990, "name": "SKYSAT-C8", "group": "resource", "lat": 80.07171520187882, "lon": -14.443952061713716, "alt_km": 460.07101920357763, "timestamp": "2025-12-13T08:49:15.351110+00:00", "meta": {"OBJECT_NAME": "SKYSAT-C8", "OBJECT_ID": "2017-068D", "EPOCH": "2025-12-12T23:00:04.964256", "MEAN_MOTION": 15.32927639, "ECCENTRICITY": 0.00016162, "INCLINATION": 97.4275, "RA_OF_ASC_NODE": 116.9591, "ARG_OF_PERICENTER": 346.6328, "MEAN_ANOMALY": 13.4871, "EPHEMERIS_TYPE": 0, "CLASSIFICATION_TYPE": "U", "NORAD_CAT_ID": 42990, "ELEMENT_SET_NO": 999, "REV_AT_EPOCH": 45374, "BSTAR": 0.00051001076, "MEAN_MOTION_DOT": 0.00016158, "MEAN_MOTION_DDOT": 0}, "tle": {"line1": "1 42990U 17068D   25346.95839079  .00016158  00000+0  51001-3 0  9996", "line2": "2 42990  97.4275 116.9591 0001616 346.6328  13.4871 15.32927639453742"}}, "geometry": {"type": "Point", "coordinates": [-14.443952061713716, 80.07171520187882]}}, {"type": "Feature", "properties": {"norad_id": 42991, "name": "SKYSAT-C7", "group": "resource", "lat": -48.95680000313382, "lon": 127.02984974643596, "alt_km": 477.0163708910204, "timestamp": "2025-12-13T08:49:15.351121+00:00", "meta": {"OBJECT_NAME": "SKYSAT-C7", "OBJECT_ID": "2017-068E", "EPOCH": "2025-12-12T22:03:57.220992", "MEAN_MOTION": 15.32331015, "ECCENTRICITY": 0.00076316, "INCLINATION": 97.4284, "RA_OF_ASC_NODE": 117.9612, "ARG_OF_PERICENTER": 56.3427, "MEAN_ANOMALY": 303.8542, "EPHEMERIS_TYPE": 0, "CLASSIFICATION_TYPE": "U", "NORAD_CAT_ID": 42991, "ELEMENT_SET_NO": 999, "REV_AT_EPOCH": 45380, "BSTAR": 0.00051799565, "MEAN_MOTION_DOT": 0.00016121, "MEAN_MOTION_DDOT": 0}, "tle": {"line1": "1 42991U 17068E   25346.91941228  .00016121  00000+0  51800-3 0  9990", "line2": "2 42991  97.4284 117.9612 0007631  56.3427 303.8542 15.32331015453801"}}, "geometry": {"type": "Point", "coordinates": [127.02984974643596, -48.95680000313382]}}, {"type": "Feature", "properties": {"norad_id": 42992, "name": "SKYSAT-C6", "group": "resource", "lat": 64.5819623604295, "lon": 102.90629675628564, "alt_km": 461.61358848142936, "timestamp": "2025-12-13T08:49:15.351131+00:00", "meta": {"OBJECT_NAME": "SKYSAT-C6", "OBJECT_ID": "2017-068F", "EPOCH": "2025-12-12T21:33:32.005440", "MEAN_MOTION": 15.31492716, "ECCENTRICITY": 0.00051766, "INCLINATION": 97.4316, "RA_OF_ASC_NODE": 118.3784, "ARG_OF_PERICENTER": 81.9204, "MEAN_ANOMALY": 278.2625, "EPHEMERIS_TYPE": 0, "CLASSIFICATION_TYPE": "U", "NORAD_CAT_ID": 42992, "ELEMENT_SET_NO": 999, "REV_AT_EPOCH": 45378, "BSTAR": 0.00048536429, "MEAN_MOTION_DOT": 0.00014701, "MEAN_MOTION_DDOT": 0}, "tle": {"line1": "1 42992U 17068F   25346.89828710  .00014701  00000+0  48536-3 0  9992", "line2": "2 42992  97.4316 118.3784 0005176  81.9204 278.2625 15.31492716453781"}}, "geometry": {"type": "Point", "coordinates": [102.90629675628564, 64.5819623604295]}}, {"type": "Feature", "properties": {"norad_id": 43111, "name": "CARTOSAT-2F", "group": "resource", "lat": 35.02076873948777, "lon": -129.75732339145054, "alt_km": 504.9923455946382, "timestamp": "2025-12-13T08:49:15.351142+00:00", "meta": {"OBJECT_NAME": "CARTOSAT-2F", "OBJECT_ID": "2018-004A", "EPOCH": "2025-12-13T00:17:00.046176", "MEAN_MOTION": 15.19280127, "ECCENTRICITY": 0.0001105, "INCLINATION": 97.432, "RA_OF_ASC_NODE": 44.6443, "ARG_OF_PERICENTER": 136.3644, "MEAN_ANOMALY": 223.7678, "EPHEMERIS_TYPE": 0, "CLASSIFICATION_TYPE": "U", "NORAD_CAT_ID": 43111, "ELEMENT_SET_NO": 999, "REV_AT_EPOCH": 43906, "BSTAR": 0.0003399813, "MEAN_MOTION_DOT": 7.106e-05, "MEAN_MOTION_DDOT": 0}, "tle": {"line1": "1 43111U 18004A   25347.01180609  .00007106  00000+0  33998-3 0  9997", "line2": "2 43111  97.4320  44.6443 0001105 136.3644 223.7678 15.19280127439069"}}, "geometry": {"type": "Point", "coordinates": [-129.75732339145054, 35.02076873948777]}}, {"type": "Feature", "properties": {"norad_id": 43259, "name": "GAOFEN-1 02", "group": "resource", "lat": 5.578351300057422, "lon": -134.04821573894228, "alt_km": 641.9629688045852, "timestamp": "2025-12-13T08:49:15.351153+00:00", "meta": {"OBJECT_NAME": "GAOFEN-1 02", "OBJECT_ID": "2018-031A", "EPOCH": "2025-12-12T23:54:05.021280", "MEAN_MOTION": 14.76417172, "ECCENTRICITY": 0.00017886, "INCLINATION": 98.0804, "RA_OF_ASC_NODE": 44.785, "ARG_OF_PERICENTER": 216.7396, "MEAN_ANOMALY": 143.3692, "EPHEMERIS_TYPE": 0, "CLASSIFICATION_TYPE": "U", "NORAD_CAT_ID": 43259, "ELEMENT_SET_NO": 999, "REV_AT_EPOCH": 41522, "BSTAR": 0.00027196206, "MEAN_MOTION_DOT": 1.839e-05, "MEAN_MOTION_DDOT": 0}, "tle": {"line1": "1 43259U 18031A   25346.99589145  .00001839  00000+0  27196-3 0  9994", "line2": "2 43259  98.0804  44.7850 0001788 216.7396 143.3692 14.76417172415222"}}, "geometry": {"type": "Point", "coordinates": [-134.04821573894228, 5.578351300057422]}}, {"type": "Feature", "properties": {"norad_id": 43260, "name": "GAOFEN-1 03", "group": "resource", "lat": -69.00799014638353, "lon": 66.76369288955134, "alt_km": 646.6657568930268, "timestamp": "2025-12-13T08:49:15.351163+00:00", "meta": {"OBJECT_NAME": "GAOFEN-1 03", "OBJECT_ID": "2018-031B", "EPOCH": "2025-12-13T01:00:26.603712", "MEAN_MOTION": 14.76438046, "ECCENTRICITY": 0.00019633, "INCLINATION": 98.0799, "RA_OF_ASC_NODE": 44.7083, "ARG_OF_PERICENTER": 320.8421, "MEAN_ANOMALY": 39.2646, "EPHEMERIS_TYPE": 0, "CLASSIFICATION_TYPE": "U", "NORAD_CAT_ID": 43260, "ELEMENT_SET_NO": 999, "REV_AT_EPOCH": 41522, "BSTAR": 0.00022704694, "MEAN_MOTION_DOT": 1.527e-05, "MEAN_MOTION_DDOT": 0}, "tle": {"line1": "1 43260U 18031B   25347.04197458  .00001527  00000+0  22705-3 0  9990", "line2": "2 43260  98.0799  44.7083 0001963 320.8421  39.2646 14.76438046415221"}}, "geometry": {"type": "Point", "coordinates": [66.76369288955134, -69.00799014638353]}}]}